#aV2019  7  4  0  0  0.00000000     288 DD+AD WGS84 FIT  NGA
## 2060 345600.00000000   300.00000000 58668 0.0000000000000
+   31     1  2  3  5  6  7  8  9 10 11 12 13 14 15 16 17 18
+         19 20 21 22 23 24 25 26 27 28 29 30 31 32  0  0  0
+          0  0  0  0  0  0  0  0  0  0  0  0  0  0  0  0  0
+          0  0  0  0  0  0  0  0  0  0  0  0  0  0  0  0  0
+          0  0  0  0  0  0  0  0  0  0  0  0  0  0  0  0  0
++         2  2  2  2  2  2  2  2  2  2  2  2  2  2  2  2  2
++         2  2  2  2  2  2  2  2  2  2  2  2  2  2  0  0  0
++         0  0  0  0  0  0  0  0  0  0  0  0  0  0  0  0  0
++         0  0  0  0  0  0  0  0  0  0  0  0  0  0  0  0  0
++         0  0  0  0  0  0  0  0  0  0  0  0  0  0  0  0  0
%c cc cc ccc ccc cccc cccc cccc cccc ccccc ccccc ccccc ccccc
%c cc cc ccc ccc cccc cccc cccc cccc ccccc ccccc ccccc ccccc
%f  0.0000000  0.000000000  0.00000000000  0.000000000000000
%f  0.0000000  0.000000000  0.00000000000  0.000000000000000
%i    0    0    0    0      0      0      0      0         0
%i    0    0    0    0      0      0      0      0         0
/*      NGA, ST. LOUIS,MO.                                  
/*   EPHEMERIS COMPUTED FROM 2 DAYS OF DATA                 
/*   EPOCHA v5 SMOOTHER                                     
/*   G1762 IERS2010 SATAF SATAPC                            
*  2019  7  4  1 30  0.00000000
P  1 -13504.124351  22363.871973  -3880.284899    -57.694033                    
V  1  -4870.353207   2252.329689  31804.516179     -0.102128                    
P  2  19023.964802 -10036.895544 -14879.418124   -252.052943                    
V  2  -8851.424615  18152.344068 -22791.427574     -0.087517                    
P  3  -9871.282486  13373.878190 -20740.796443    182.933900                    
V  3 -25973.478162  -3886.878738   9964.358136     -0.018323                    
P  5  25488.778562  -2906.338733   7160.967578      0.237276                    
V  5   8936.416320   3623.010203 -29613.720013     -0.001973                    
P  6  14532.264266   4955.617741 -21634.771138    159.899531                    
V  6 -16015.308695  22381.633941  -5587.416911     -0.110037                    
P  7  -1731.787393  21029.030556  16100.028111    -57.202614                    
V  7 -14015.136985  14666.558498 -21491.192510     -0.077010                    
P  8  -9297.637251  13827.833597  20664.273188   -149.847734                    
V  8 -11620.182959 -23496.022562  10709.790779     -0.014847                    
P  9   7344.703220  25021.472459  -5054.343392    378.487202                    
V  9  -5376.733029  -4572.527941 -30690.707954     -0.080599                    
P 10 -20211.351900 -11443.856035  13129.490198     -4.280353                    
V 10  16610.120959   -184.366833  25334.033144     -0.125917                    
P 11  -8955.512442  24453.682406   5352.963277   -569.754216                    
V 11  -2633.787815  -8105.070244  29408.311475      0.090975                    
P 12  12872.734130 -11455.357448 -20378.426617    227.239079                    
V 12  24809.472426   5446.200579  12905.678729     -0.035846                    
P 13  14541.303468  -3786.382301  21793.151763    -56.229548                    
V 13   7854.503774  26782.984917   -533.413279      0.017148                    
P 14 -16505.044351 -12186.734379 -16641.674341    -73.184185                    
V 14  -5338.025018 -21096.617935  20165.506116      0.017672                    
P 15   8355.555763 -15329.032995  19647.515235   -303.139845                    
V 15  13900.511689  21756.263171  11304.945450      0.023957                    
P 16 -25663.811043   -131.170755   7470.368984    -53.259560                    
V 16  -9084.427844  -3562.961961 -30078.655663     -0.031483                    
P 17  14640.175765  19343.171867 -10510.710333     82.539481                    
V 17   3082.954670  13677.335159  28287.027766      0.066171                    
P 18 -17091.176417  19541.057604   4781.135142     67.056808                    
V 18   1138.847308  -7322.044704  30919.653891      0.030228                    
P 19  16001.460086  13371.851026 -16719.122466   -298.647871                    
V 19   4981.861825  20065.986700  21261.800531      0.048204                    
P 20 -12052.170963 -14037.056273  19007.708315    525.757255                    
V 20  24394.032583  -1824.664189  13885.081706      0.002156                    
P 21  -3989.021218 -18903.400315  19091.910634   -161.294677                    
V 21  13448.259826 -18199.173737 -15718.997896      0.070983                    
P 22 -17195.434925  11557.523428 -16343.732935   -726.181239                    
V 22 -21197.653542  -3415.968576  19698.482148     -0.053151                    
P 23  -2844.244485  20902.220569 -15548.706653   -178.889171                    
V 23 -10998.380651 -17599.103872 -21578.959027      0.017545                    
P 24  14323.195699 -22148.812548   -412.467562    -68.357026                    
V 24   3373.130516   1820.822042  31460.490838     -0.005876                    
P 25  -1943.713946 -15305.360580 -21856.057923   -770.768926                    
V 25  27029.056614   2948.830623  -4268.301955     -0.028730                    
P 26 -26112.089008  -4447.051617  -3015.633434    242.585034                    
V 26   4032.330612  -2595.493414 -31122.348001      0.093311                    
P 27 -15541.173971    515.736267  21462.716449   -175.058345                    
V 27 -10644.792598 -25269.413415  -6773.193098     -0.105228                    
P 28  18650.177854  13351.311542  13909.456227    766.869759                    
V 28 -16627.209444  -1836.474217  25254.551913     -0.004107                    
P 29  -2964.550580 -24988.882543  -8516.561588    160.481631                    
V 29   5395.695562   9473.615330 -29814.213494     -0.096618                    
P 30   7680.887299  14619.443933  20795.546809   -136.171352                    
V 30 -17362.402518  19983.032749  -7839.774174     -0.074337                    
P 31 -16014.388929  -3419.541743 -20995.356142     26.738827                    
V 31  15984.108992 -21229.431157  -8299.561856     -0.026225                    
P 32 -16387.099644 -17818.505043 -11000.630837    -17.307808                    
V 32  -3412.543337 -13835.416724  27215.529916      0.155734                    
EOF
